{"type": "FeatureCollection", "features": [ {"type": "Feature", "properties": {"norad_id": 31196, "name": "FENGYUN 1C DEB", "group": "fengyun-1c-debris", "lat": -19.735190726833284, "lon": 0.9881261596050799, "alt_km": 833.7067303434369, "timestamp": "2025-12-10T14:53:37.372398+00:00", "meta": {"OBJECT_NAME": "FENGYUN 1C DEB", "OBJECT_ID": "1999-025BKA", "EPOCH": "2025-12-08T19:11:13.432992", "MEAN_MOTION": 14.25445822, "ECCENTRICITY": 0.00577315, "INCLINATION": 98.5268, "RA_OF_ASC_NODE": 356.1324, "ARG_OF_PERICENTER": 223.7518, "MEAN_ANOMALY": 135.908, "EPHEMERIS_TYPE": 0, "CLASSIFICATION_TYPE": "U", "NORAD_CAT_ID": 31196, "ELEMENT_SET_NO": 999, "REV_AT_EPOCH": 63439, "BSTAR": 0.00095478472, "MEAN_MOTION_DOT": 2.251e-05, "MEAN_MOTION_DDOT": 0}, "tle": {"line1": "1 31196U 99025BKA 25342.79946103  .00002251  00000+0  95478-3 0  9995", "line2": "2 31196  98.5268 356.1324 0057731 223.7518 135.9080 14.25445822634393"}}, "geometry": {"type": "Point", "coordinates": [0.9881261596050799, -19.735190726833284]}}, {"type": "Feature", "properties": {"norad_id": 31198, "name": "FENGYUN 1C DEB", "group": "fengyun-1c-debris", "lat": 20.827152465495747, "lon": 85.3842850126182, "alt_km": 841.9197049432587, "timestamp": "2025-12-10T14:53:37.372407+00:00", "meta": {"OBJECT_NAME": "FENGYUN 1C DEB", "OBJECT_ID": "1999-025BKC", "EPOCH": "2025-12-09T12:36:36.042624", "MEAN_MOTION": 13.75520391, "ECCENTRICITY": 0.02039968, "INCLINATION": 98.6127, "RA_OF_ASC_NODE": 87.699, "ARG_OF_PERICENTER": 0.1889, "MEAN_ANOMALY": 359.9306, "EPHEMERIS_TYPE": 0, "CLASSIFICATION_TYPE": "U", "NORAD_CAT_ID": 31198, "ELEMENT_SET_NO": 999, "REV_AT_EPOCH": 62709, "BSTAR": 0.0001575656, "MEAN_MOTION_DOT": 1.38e-06, "MEAN_MOTION_DDOT": 0}, "tle": {"line1": "1 31198U 99025BKC 25343.52541716  .00000138  00000+0  15757-3 0  9994", "line2": "2 31198  98.6127  87.6990 0203996   0.1889 359.9306 13.75520391627096"}}, "geometry": {"type": "Point", "coordinates": [85.3842850126182, 20.827152465495747]}}, {"type": "Feature", "properties": {"norad_id": 31199, "name": "FENGYUN 1C DEB", "group": "fengyun-1c-debris", "lat": -79.19299194211963, "lon": 93.98433459588946, "alt_km": 820.7656619224817, "timestamp": "2025-12-10T14:53:37.372416+00:00", "meta": {"OBJECT_NAME": "FENGYUN 1C DEB", "OBJECT_ID": "1999-025BKD", "EPOCH": "2025-12-05T16:58:40.008864", "MEAN_MOTION": 14.09979297, "ECCENTRICITY": 0.00635718, "INCLINATION": 98.7162, "RA_OF_ASC_NODE": 322.7056, "ARG_OF_PERICENTER": 279.9042, "MEAN_ANOMALY": 258.7122, "EPHEMERIS_TYPE": 0, "CLASSIFICATION_TYPE": "U", "NORAD_CAT_ID": 31199, "ELEMENT_SET_NO": 999, "REV_AT_EPOCH": 96060, "BSTAR": 0.00037158052, "MEAN_MOTION_DOT": 6.24e-06, "MEAN_MOTION_DDOT": 0}, "tle": {"line1": "1 31199U 99025BKD 25339.70740751  .00000624  00000+0  37158-3 0  9999", "line2": "2 31199  98.7162 322.7056 0063571 279.9042 258.7122 14.09979297960603"}}, "geometry": {"type": "Point", "coordinates": [93.98433459588946, -79.19299194211963]}}, {"type": "Feature", "properties": {"norad_id": 31201, "name": "FENGYUN 1C DEB", "group": "fengyun-1c-debris", "lat": -75.05997803713004, "lon": -118.14851291059522, "alt_km": 754.8606506325277, "timestamp": "2025-12-10T14:53:37.372426+00:00", "meta": {"OBJECT_NAME": "FENGYUN 1C DEB", "OBJECT_ID": "1999-025BKF", "EPOCH": "2025-12-10T02:33:39.018240", "MEAN_MOTION": 14.35142048, "ECCENTRICITY": 0.01428384, "INCLINATION": 99.0015, "RA_OF_ASC_NODE": 204.8695, "ARG_OF_PERICENTER": 358.9648, "MEAN_ANOMALY": 151.1982, "EPHEMERIS_TYPE": 0, "CLASSIFICATION_TYPE": "U", "NORAD_CAT_ID": 31201, "ELEMENT_SET_NO": 999, "REV_AT_EPOCH": 97213, "BSTAR": 0.0012050616, "MEAN_MOTION_DOT": 3.813e-05, "MEAN_MOTION_DDOT": 0}, "tle": {"line1": "1 31201U 99025BKF 25344.10670160  .00003813  00000+0  12051-2 0  9996", "line2": "2 31201  99.0015 204.8695 0142838 358.9648 151.1982 14.35142048972137"}}, "geometry": {"type": "Point", "coordinates": [-118.14851291059522, -75.05997803713004]}}, {"type": "Feature", "properties": {"norad_id": 31202, "name": "FENGYUN 1C DEB", "group": "fengyun-1c-debris", "lat": 60.43762985212867, "lon": 18.512156880382673, "alt_km": 636.7190201857211, "timestamp": "2025-12-10T14:53:37.372435+00:00", "meta": {"OBJECT_NAME": "FENGYUN 1C DEB", "OBJECT_ID": "1999-025BKG", "EPOCH": "2025-12-09T15:01:36.990912", "MEAN_MOTION": 14.83995916, "ECCENTRICITY": 0.0068102, "INCLINATION": 96.5734, "RA_OF_ASC_NODE": 29.422, "ARG_OF_PERICENTER": 187.7541, "MEAN_ANOMALY": 324.6432, "EPHEMERIS_TYPE": 0, "CLASSIFICATION_TYPE": "U", "NORAD_CAT_ID": 31202, "ELEMENT_SET_NO": 999, "REV_AT_EPOCH": 99108, "BSTAR": 0.001491, "MEAN_MOTION_DOT": 0.00012906, "MEAN_MOTION_DDOT": 0}, "tle": {"line1": "1 31202U 99025BKG 25343.62612258  .00012906  00000+0  14910-2 0  9996", "line2": "2 31202  96.5734  29.4220 0068102 187.7541 324.6432 14.83995916991089"}}, "geometry": {"type": "Point", "coordinates": [18.512156880382673, 60.43762985212867]}}, {"type": "Feature", "properties": {"norad_id": 31205, "name": "FENGYUN 1C DEB", "group": "fengyun-1c-debris", "lat": 79.46206092103336, "lon": -41.39414320971075, "alt_km": 839.6549540688511, "timestamp": "2025-12-10T14:53:37.372444+00:00", "meta": {"OBJECT_NAME": "FENGYUN 1C DEB", "OBJECT_ID": "1999-025BKK", "EPOCH": "2025-12-08T16:54:13.993632", "MEAN_MOTION": 14.23952534, "ECCENTRICITY": 0.01617006, "INCLINATION": 99.2293, "RA_OF_ASC_NODE": 75.6624, "ARG_OF_PERICENTER": 208.9841, "MEAN_ANOMALY": 150.2285, "EPHEMERIS_TYPE": 0, "CLASSIFICATION_TYPE": "U", "NORAD_CAT_ID": 31205, "ELEMENT_SET_NO": 999, "REV_AT_EPOCH": 97153, "BSTAR": 0.00033027217, "MEAN_MOTION_DOT": 8.17e-06, "MEAN_MOTION_DDOT": 0}, "tle": {"line1": "1 31205U 99025BKK 25342.70432863  .00000817  00000+0  33027-3 0  9998", "line2": "2 31205  99.2293  75.6624 0161700 208.9841 150.2285 14.23952534971530"}}, "geometry": {"type": "Point", "coordinates": [-41.39414320971075, 79.46206092103336]}}, {"type": "Feature", "properties": {"norad_id": 31206, "name": "FENGYUN 1C DEB", "group": "fengyun-1c-debris", "lat": -7.850020736379994, "lon": -106.29562622357541, "alt_km": 707.2109788759662, "timestamp": "2025-12-10T14:53:37.372453+00:00", "meta": {"OBJECT_NAME": "FENGYUN 1C DEB", "OBJECT_ID": "1999-025BKL", "EPOCH": "2025-12-10T04:55:39.560736", "MEAN_MOTION": 14.40480249, "ECCENTRICITY": 0.00780282, "INCLINATION": 98.8432, "RA_OF_ASC_NODE": 252.0455, "ARG_OF_PERICENTER": 9.2745, "MEAN_ANOMALY": 350.9862, "EPHEMERIS_TYPE": 0, "CLASSIFICATION_TYPE": "U", "NORAD_CAT_ID": 31206, "ELEMENT_SET_NO": 999, "REV_AT_EPOCH": 97809, "BSTAR": 0.0011659211, "MEAN_MOTION_DOT": 3.797e-05, "MEAN_MOTION_DDOT": 0}, "tle": {"line1": "1 31206U 99025BKL 25344.20531899  .00003797  00000+0  11659-2 0  9991", "line2": "2 31206  98.8432 252.0455 0078028   9.2745 350.9862 14.40480249978095"}}, "geometry": {"type": "Point", "coordinates": [-106.29562622357541, -7.850020736379994]}}, {"type": "Feature", "properties": {"norad_id": 31208, "name": "FENGYUN 1C DEB", "group": "fengyun-1c-debris", "lat": 67.93080476465803, "lon": 104.40091105545073, "alt_km": 691.461904928442, "timestamp": "2025-12-10T14:53:37.372462+00:00", "meta": {"OBJECT_NAME": "FENGYUN 1C DEB", "OBJECT_ID": "1999-025BKN", "EPOCH": "2025-12-09T21:11:38.581152", "MEAN_MOTION": 14.61694196, "ECCENTRICITY": 0.00162129, "INCLINATION": 99.2399, "RA_OF_ASC_NODE": 127.2506, "ARG_OF_PERICENTER": 275.3869, "MEAN_ANOMALY": 235.9131, "EPHEMERIS_TYPE": 0, "CLASSIFICATION_TYPE": "U", "NORAD_CAT_ID": 31208, "ELEMENT_SET_NO": 999, "REV_AT_EPOCH": 70437, "BSTAR": 0.0049235559, "MEAN_MOTION_DOT": 0.00024596, "MEAN_MOTION_DDOT": 0}, "tle": {"line1": "1 31208U 99025BKN 25343.88308543  .00024596  00000+0  49236-2 0  9996", "line2": "2 31208  99.2399 127.2506 0016212 275.3869 235.9131 14.61694196704374"}}, "geometry": {"type": "Point", "coordinates": [104.40091105545073, 67.93080476465803]}}, {"type": "Feature", "properties": {"norad_id": 31209, "name": "FENGYUN 1C DEB", "group": "fengyun-1c-debris", "lat": 50.391639399934846, "lon": 68.71536679602013, "alt_km": 734.8656705534231, "timestamp": "2025-12-10T14:53:37.372471+00:00", "meta": {"OBJECT_NAME": "FENGYUN 1C DEB", "OBJECT_ID": "1999-025BKP", "EPOCH": "2025-12-10T01:20:54.721824", "MEAN_MOTION": 14.43402924, "ECCENTRICITY": 0.00214737, "INCLINATION": 98.8828, "RA_OF_ASC_NODE": 79.0207, "ARG_OF_PERICENTER": 353.1421, "MEAN_ANOMALY": 6.9471, "EPHEMERIS_TYPE": 0, "CLASSIFICATION_TYPE": "U", "NORAD_CAT_ID": 31209, "ELEMENT_SET_NO": 999, "REV_AT_EPOCH": 64769, "BSTAR": 0.0038121705, "MEAN_MOTION_DOT": 0.00012883, "MEAN_MOTION_DDOT": 0}, "tle": {"line1": "1 31209U 99025BKP 25344.05618891  .00012883  00000+0  38122-2 0  9995", "line2": "2 31209  98.8828  79.0207 0021473 353.1421   6.9471 14.43402924647693"}}, "geometry": {"type": "Point", "coordinates": [68.71536679602013, 50.391639399934846]}}, {"type": "Feature", "properties": {"norad_id": 31210, "name": "FENGYUN 1C DEB", "group": "fengyun-1c-debris", "lat": 25.432891618549867, "lon": 169.89360498198712, "alt_km": 839.4795343005244, "timestamp": "2025-12-10T14:53:37.372480+00:00", "meta": {"OBJECT_NAME": "FENGYUN 1C DEB", "OBJECT_ID": "1999-025BKQ", "EPOCH": "2025-12-09T22:59:57.306624", "MEAN_MOTION": 14.11990351, "ECCENTRICITY": 0.00170087, "INCLINATION": 98.7186, "RA_OF_ASC_NODE": 345.0651, "ARG_OF_PERICENTER": 162.7913, "MEAN_ANOMALY": 226.8349, "EPHEMERIS_TYPE": 0, "CLASSIFICATION_TYPE": "U", "NORAD_CAT_ID": 31210, "ELEMENT_SET_NO": 999, "REV_AT_EPOCH": 95928, "BSTAR": 0.00048744477, "MEAN_MOTION_DOT": 8.5e-06, "MEAN_MOTION_DDOT": 0}, "tle": {"line1": "1 31210U 99025BKQ 25343.95830216  .00000850  00000+0  48744-3 0  9995", "line2": "2 31210  98.7186 345.0651 0017008 162.7913 226.8349 14.11990351959288"}}, "geometry": {"type": "Point", "coordinates": [169.89360498198712, 25.432891618549867]}}]}